[Satellite]
VERSION=1.1
NAME=ASTEX 1
NICKNAME=ASTEX 1
TLE1=1 05560U 71089A   19317.53574470  .00000086  00000-0  23392-4 0  9994
TLE2=2 05560  92.7102 127.0761 0014235 303.8259  56.1590 14.48039712528378
STATUS=0
